[{"OBJECT_NAME":"JY1SAT (JO-97)","OBJECT_ID":"2018-099AX","EPOCH":"2026-03-09T16:28:19.890048","MEAN_MOTION":15.30302629,"ECCENTRICITY":0.00047232,"INCLINATION":97.4249,"RA_OF_ASC_NODE":131.3625,"ARG_OF_PERICENTER":256.6795,"MEAN_ANOMALY":103.3919,"EPHEMERIS_TYPE":0,"CLASSIFICATION_TYPE":"U","NORAD_CAT_ID":43803,"ELEMENT_SET_NO":999,"REV_AT_EPOCH":39839,"BSTAR":0.00060804308,"MEAN_MOTION_DOT":0.00017774,"MEAN_MOTION_DDOT":0},{"OBJECT_NAME":"STARLINK-31926","OBJECT_ID":"2024-098X","EPOCH":"2026-03-09T22:57:39.076128","MEAN_MOTION":15.27769593,"ECCENTRICITY":0.00012547,"INCLINATION":42.999,"RA_OF_ASC_NODE":265.9804,"ARG_OF_PERICENTER":279.3622,"MEAN_ANOMALY":80.7088,"EPHEMERIS_TYPE":0,"CLASSIFICATION_TYPE":"U","NORAD_CAT_ID":59879,"ELEMENT_SET_NO":999,"REV_AT_EPOCH":10200,"BSTAR":0.0003654505,"MEAN_MOTION_DOT":9.866e-5,"MEAN_MOTION_DDOT":0}]
